{"type": "FeatureCollection", "features": [ {"type": "Feature", "properties": {"norad_id": 38755, "name": "SPOT 6", "group": "resource", "lat": 32.32660671724524, "lon": 37.96996718436513, "alt_km": 695.5299049478499, "timestamp": "2025-12-04T05:42:43.034801+00:00", "meta": {"OBJECT_NAME": "SPOT 6", "OBJECT_ID": "2012-047A", "EPOCH": "2025-12-03T22:58:36.938208", "MEAN_MOTION": 14.58590437, "ECCENTRICITY": 0.00010489, "INCLINATION": 98.1584, "RA_OF_ASC_NODE": 42.9031, "ARG_OF_PERICENTER": 100.3897, "MEAN_ANOMALY": 259.7421, "EPHEMERIS_TYPE": 0, "CLASSIFICATION_TYPE": "U", "NORAD_CAT_ID": 38755, "ELEMENT_SET_NO": 999, "REV_AT_EPOCH": 70459, "BSTAR": 0.00018853487, "MEAN_MOTION_DOT": 8.32e-06, "MEAN_MOTION_DDOT": 0}, "tle": {"line1": "1 38755U 12047A   25337.95737197  .00000832  00000+0  18853-3 0  9990", "line2": "2 38755  98.1584  42.9031 0001048 100.3897 259.7421 14.58590437704596"}}, "geometry": {"type": "Point", "coordinates": [37.96996718436513, 32.32660671724524]}}, {"type": "Feature", "properties": {"norad_id": 39019, "name": "PLEIADES 1B", "group": "resource", "lat": -65.81617091592405, "lon": 69.70606028346431, "alt_km": 705.9103216498352, "timestamp": "2025-12-04T05:42:43.034811+00:00", "meta": {"OBJECT_NAME": "PLEIADES 1B", "OBJECT_ID": "2012-068A", "EPOCH": "2025-12-03T23:26:01.159584", "MEAN_MOTION": 14.58539711, "ECCENTRICITY": 0.0001249, "INCLINATION": 98.1805, "RA_OF_ASC_NODE": 50.7662, "ARG_OF_PERICENTER": 87.4594, "MEAN_ANOMALY": 272.6748, "EPHEMERIS_TYPE": 0, "CLASSIFICATION_TYPE": "U", "NORAD_CAT_ID": 39019, "ELEMENT_SET_NO": 999, "REV_AT_EPOCH": 69239, "BSTAR": 0.0001916587, "MEAN_MOTION_DOT": 8.45e-06, "MEAN_MOTION_DDOT": 0}, "tle": {"line1": "1 39019U 12068A   25337.97640231  .00000845  00000+0  19166-3 0  9993", "line2": "2 39019  98.1805  50.7662 0001249  87.4594 272.6748 14.58539711692393"}}, "geometry": {"type": "Point", "coordinates": [69.70606028346431, -65.81617091592405]}}, {"type": "Feature", "properties": {"norad_id": 39030, "name": "GOKTURK 2", "group": "resource", "lat": -3.0095007584057223, "lon": -179.2836642560966, "alt_km": 647.7692870960818, "timestamp": "2025-12-04T05:42:43.034822+00:00", "meta": {"OBJECT_NAME": "GOKTURK 2", "OBJECT_ID": "2012-073A", "EPOCH": "2025-12-03T23:12:51.996672", "MEAN_MOTION": 14.75272524, "ECCENTRICITY": 8.077e-05, "INCLINATION": 97.6899, "RA_OF_ASC_NODE": 180.052, "ARG_OF_PERICENTER": 96.0548, "MEAN_ANOMALY": 264.0754, "EPHEMERIS_TYPE": 0, "CLASSIFICATION_TYPE": "U", "NORAD_CAT_ID": 39030, "ELEMENT_SET_NO": 999, "REV_AT_EPOCH": 69572, "BSTAR": 0.00019100236, "MEAN_MOTION_DOT": 1.246e-05, "MEAN_MOTION_DDOT": 0}, "tle": {"line1": "1 39030U 12073A   25337.96726848  .00001246  00000+0  19100-3 0  9994", "line2": "2 39030  97.6899 180.0520 0000807  96.0548 264.0754 14.75272524695724"}}, "geometry": {"type": "Point", "coordinates": [-179.2836642560966, -3.0095007584057223]}}, {"type": "Feature", "properties": {"norad_id": 39084, "name": "LANDSAT 8", "group": "resource", "lat": 32.5954489237135, "lon": -128.26767894222024, "alt_km": 700.1268561986335, "timestamp": "2025-12-04T05:42:43.034832+00:00", "meta": {"OBJECT_NAME": "LANDSAT 8", "OBJECT_ID": "2013-008A", "EPOCH": "2025-12-03T20:47:58.990272", "MEAN_MOTION": 14.57126913, "ECCENTRICITY": 0.00010671, "INCLINATION": 98.2083, "RA_OF_ASC_NODE": 46.0707, "ARG_OF_PERICENTER": 88.8861, "MEAN_ANOMALY": 271.2459, "EPHEMERIS_TYPE": 0, "CLASSIFICATION_TYPE": "U", "NORAD_CAT_ID": 39084, "ELEMENT_SET_NO": 999, "REV_AT_EPOCH": 66945, "BSTAR": 0.00020082125, "MEAN_MOTION_DOT": 8.6e-06, "MEAN_MOTION_DDOT": 0}, "tle": {"line1": "1 39084U 13008A   25337.86665498  .00000860  00000+0  20082-3 0  9996", "line2": "2 39084  98.2083  46.0707 0001067  88.8861 271.2459 14.57126913669452"}}, "geometry": {"type": "Point", "coordinates": [-128.26767894222024, 32.5954489237135]}}, {"type": "Feature", "properties": {"norad_id": 39086, "name": "SARAL", "group": "resource", "lat": 22.943438393565284, "lon": -14.06932565871374, "alt_km": 780.4945118245569, "timestamp": "2025-12-04T05:42:43.034843+00:00", "meta": {"OBJECT_NAME": "SARAL", "OBJECT_ID": "2013-009A", "EPOCH": "2025-12-03T22:16:44.445216", "MEAN_MOTION": 14.32752386, "ECCENTRICITY": 0.00026432, "INCLINATION": 98.5507, "RA_OF_ASC_NODE": 161.9736, "ARG_OF_PERICENTER": 125.5358, "MEAN_ANOMALY": 234.6073, "EPHEMERIS_TYPE": 0, "CLASSIFICATION_TYPE": "U", "NORAD_CAT_ID": 39086, "ELEMENT_SET_NO": 999, "REV_AT_EPOCH": 66764, "BSTAR": 0.0001227279, "MEAN_MOTION_DOT": 2.91e-06, "MEAN_MOTION_DDOT": 0}, "tle": {"line1": "1 39086U 13009A   25337.92829219  .00000291  00000+0  12273-3 0  9990", "line2": "2 39086  98.5507 161.9736 0002643 125.5358 234.6073 14.32752386667644"}}, "geometry": {"type": "Point", "coordinates": [-14.06932565871374, 22.943438393565284]}}, {"type": "Feature", "properties": {"norad_id": 39150, "name": "GAOFEN-1", "group": "resource", "lat": 36.388286195488575, "lon": 43.14846863498933, "alt_km": 646.2507528558344, "timestamp": "2025-12-04T05:42:43.034853+00:00", "meta": {"OBJECT_NAME": "GAOFEN-1", "OBJECT_ID": "2013-018A", "EPOCH": "2025-12-03T23:02:22.407648", "MEAN_MOTION": 14.76509816, "ECCENTRICITY": 0.00176749, "INCLINATION": 97.9337, "RA_OF_ASC_NODE": 48.7741, "ARG_OF_PERICENTER": 170.5695, "MEAN_ANOMALY": 189.585, "EPHEMERIS_TYPE": 0, "CLASSIFICATION_TYPE": "U", "NORAD_CAT_ID": 39150, "ELEMENT_SET_NO": 999, "REV_AT_EPOCH": 67943, "BSTAR": 0.00023225791, "MEAN_MOTION_DOT": 1.571e-05, "MEAN_MOTION_DDOT": 0}, "tle": {"line1": "1 39150U 13018A   25337.95998157  .00001571  00000+0  23226-3 0  9995", "line2": "2 39150  97.9337  48.7741 0017674 170.5695 189.5850 14.76509816679439"}}, "geometry": {"type": "Point", "coordinates": [43.14846863498933, 36.388286195488575]}}, {"type": "Feature", "properties": {"norad_id": 39160, "name": "VNREDSAT 1", "group": "resource", "lat": 80.942965389557, "lon": -85.09887172442673, "alt_km": 669.0157545802949, "timestamp": "2025-12-04T05:42:43.034863+00:00", "meta": {"OBJECT_NAME": "VNREDSAT 1", "OBJECT_ID": "2013-021B", "EPOCH": "2025-12-03T22:43:32.331936", "MEAN_MOTION": 14.64901913, "ECCENTRICITY": 0.00013654, "INCLINATION": 97.9386, "RA_OF_ASC_NODE": 33.5296, "ARG_OF_PERICENTER": 83.9184, "MEAN_ANOMALY": 276.2175, "EPHEMERIS_TYPE": 0, "CLASSIFICATION_TYPE": "U", "NORAD_CAT_ID": 39160, "ELEMENT_SET_NO": 999, "REV_AT_EPOCH": 67170, "BSTAR": 0.00025303535, "MEAN_MOTION_DOT": 1.307e-05, "MEAN_MOTION_DDOT": 0}, "tle": {"line1": "1 39160U 13021B   25337.94690199  .00001307  00000+0  25304-3 0  9990", "line2": "2 39160  97.9386  33.5296 0001365  83.9184 276.2175 14.64901913671708"}}, "geometry": {"type": "Point", "coordinates": [-85.09887172442673, 80.942965389557]}}, {"type": "Feature", "properties": {"norad_id": 39227, "name": "ARIRANG-5 (KOMPSAT-5)", "group": "resource", "lat": 42.26820263158457, "lon": 155.67833954652644, "alt_km": 547.2610044675985, "timestamp": "2025-12-04T05:42:43.034876+00:00", "meta": {"OBJECT_NAME": "ARIRANG-5 (KOMPSAT-5)", "OBJECT_ID": "2013-042A", "EPOCH": "2025-12-03T23:08:16.452384", "MEAN_MOTION": 15.04506868, "ECCENTRICITY": 0.00042413, "INCLINATION": 97.6155, "RA_OF_ASC_NODE": 162.3934, "ARG_OF_PERICENTER": 80.6977, "MEAN_ANOMALY": 279.4728, "EPHEMERIS_TYPE": 0, "CLASSIFICATION_TYPE": "U", "NORAD_CAT_ID": 39227, "ELEMENT_SET_NO": 999, "REV_AT_EPOCH": 67450, "BSTAR": 0.00022159433, "MEAN_MOTION_DOT": 3.043e-05, "MEAN_MOTION_DDOT": 0}, "tle": {"line1": "1 39227U 13042A   25337.96407931  .00003043  00000+0  22159-3 0  9993", "line2": "2 39227  97.6155 162.3934 0004241  80.6977 279.4728 15.04506868674508"}}, "geometry": {"type": "Point", "coordinates": [155.67833954652644, 42.26820263158457]}}, {"type": "Feature", "properties": {"norad_id": 39418, "name": "SKYSAT-A", "group": "resource", "lat": -20.421767459116207, "lon": -154.07301682038943, "alt_km": 531.5299610276697, "timestamp": "2025-12-04T05:42:43.034887+00:00", "meta": {"OBJECT_NAME": "SKYSAT-A", "OBJECT_ID": "2013-066C", "EPOCH": "2025-12-03T17:42:13.855104", "MEAN_MOTION": 15.11496144, "ECCENTRICITY": 0.00204192, "INCLINATION": 97.4125, "RA_OF_ASC_NODE": 28.2202, "ARG_OF_PERICENTER": 269.8532, "MEAN_ANOMALY": 90.0359, "EPHEMERIS_TYPE": 0, "CLASSIFICATION_TYPE": "U", "NORAD_CAT_ID": 39418, "ELEMENT_SET_NO": 999, "REV_AT_EPOCH": 65894, "BSTAR": 0.00032597224, "MEAN_MOTION_DOT": 5.483e-05, "MEAN_MOTION_DDOT": 0}, "tle": {"line1": "1 39418U 13066C   25337.73766036  .00005483  00000+0  32597-3 0  9997", "line2": "2 39418  97.4125  28.2202 0020419 269.8532  90.0359 15.11496144658946"}}, "geometry": {"type": "Point", "coordinates": [-154.07301682038943, -20.421767459116207]}}, {"type": "Feature", "properties": {"norad_id": 39419, "name": "DUBAISAT-2", "group": "resource", "lat": 79.47955521047751, "lon": -75.843250314044, "alt_km": 534.214379740898, "timestamp": "2025-12-04T05:42:43.034897+00:00", "meta": {"OBJECT_NAME": "DUBAISAT-2", "OBJECT_ID": "2013-066D", "EPOCH": "2025-12-03T22:58:43.305024", "MEAN_MOTION": 15.08219525, "ECCENTRICITY": 0.00114059, "INCLINATION": 97.4439, "RA_OF_ASC_NODE": 328.6373, "ARG_OF_PERICENTER": 353.8956, "MEAN_ANOMALY": 6.2132, "EPHEMERIS_TYPE": 0, "CLASSIFICATION_TYPE": "U", "NORAD_CAT_ID": 39419, "ELEMENT_SET_NO": 999, "REV_AT_EPOCH": 65694, "BSTAR": 0.00048340484, "MEAN_MOTION_DOT": 7.433e-05, "MEAN_MOTION_DDOT": 0}, "tle": {"line1": "1 39419U 13066D   25337.95744566  .00007433  00000+0  48340-3 0  9996", "line2": "2 39419  97.4439 328.6373 0011405 353.8956   6.2132 15.08219525656948"}}, "geometry": {"type": "Point", "coordinates": [-75.843250314044, 79.47955521047751]}}]}